{"type":"FeatureCollection","features":[{"type":"Feature","properties":{"id":"i35","label":"I-35","role":"spoke"},"geometry":{"type":"MultiLineString","coordinates":[[[-97.813515,30.098842],[-97.807152,30.112477],[-97.799151,30.132381],[-97.792709,30.149718],[-97.789826,30.159482],[-97.788874,30.16206],[-97.787544,30.164913],[-97.772336,30.188149],[-97.756503,30.2082],[-97.750593,30.217732],[-97.735631,30.243214],[-97.735142,30.244414],[-97.735028,30.245863],[-97.737098,30.255989],[-97.73724,30.258816],[-97.736517,30.261317],[-97.735566,30.2634],[-97.730786,30.276914],[-97.72899,30.280654],[-97.710226,30.309915],[-97.708682,30.312848],[-97.707709,30.316199],[-97.706635,30.324356],[-97.705815,30.329039],[-97.704792,30.331884],[-97.676155,30.377057],[-97.674636,30.379916],[-97.671752,30.391862],[-97.671643,30.393388],[-97.671903,30.395235],[-97.672844,30.397782],[-97.67479,30.402071],[-97.675079,30.403409],[-97.675192,30.405388],[-97.666629,30.450441],[-97.666275,30.453407],[-97.666425,30.45552],[-97.666958,30.45799],[-97.673946,30.480093]],[[-97.673759,30.480101],[-97.677917,30.493279],[-97.680273,30.49824],[-97.684044,30.504718],[-97.685846,30.509334],[-97.687297,30.514558],[-97.691585,30.532713],[-97.69196,30.535135],[-97.692825,30.582344],[-97.692722,30.584812],[-97.692145,30.588574],[-97.690904,30.593017],[-97.690146,30.59529],[-97.686926,30.603208],[-97.686493,30.60485],[-97.686248,30.606946],[-97.686563,30.610399],[-97.69149,30.627946],[-97.69171,30.629675],[-97.691469,30.632098],[-97.689425,30.638503],[-97.688316,30.640662],[-97.685756,30.643747],[-97.681416,30.647481],[-97.679113,30.65007],[-97.661175,30.678991],[-97.659245,30.682633],[-97.651726,30.701624],[-97.638658,30.739144],[-97.634334,30.752911],[-97.629259,30.765253],[-97.621088,30.792283],[-97.615854,30.804643],[-97.611577,30.81388],[-97.609005,30.818659],[-97.603013,30.827435],[-97.601539,30.830019],[-97.59456,30.845063],[-97.589397,30.85681]]]}},{"type":"Feature","properties":{"id":"mopac","label":"MoPac","role":"spoke"},"geometry":{"type":"MultiLineString","coordinates":[[[-97.699297,30.4602],[-97.697504,30.455124],[-97.696654,30.451688],[-97.696453,30.449772],[-97.696722,30.445742],[-97.697144,30.443826],[-97.699051,30.438969],[-97.699807,30.43408],[-97.705172,30.41816],[-97.706542,30.414954],[-97.707459,30.413825],[-97.710746,30.410691],[-97.712803,30.409485],[-97.713961,30.409046],[-97.718574,30.408222],[-97.720665,30.407596],[-97.722498,30.406761],[-97.725854,30.404846],[-97.728116,30.402932],[-97.73006,30.400834],[-97.732115,30.397765],[-97.733335,30.394434],[-97.736132,30.3838],[-97.739986,30.375027],[-97.742545,30.368429],[-97.743457,30.364583],[-97.745033,30.36066],[-97.74641,30.356315],[-97.747047,30.35504],[-97.748777,30.352657],[-97.749879,30.348733],[-97.755384,30.33751],[-97.755798,30.335332],[-97.756178,30.319739],[-97.757269,30.310799],[-97.758646,30.303845],[-97.75838,30.299489],[-97.758519,30.298001],[-97.759823,30.293247],[-97.760448,30.291656],[-97.761499,30.28976],[-97.765315,30.284174],[-97.767499,30.279786],[-97.773069,30.272197],[-97.774459,30.270646],[-97.780056,30.267061],[-97.782569,30.265882],[-97.787739,30.26401],[-97.801607,30.256416],[-97.803657,30.255038],[-97.805006,30.253529],[-97.805777,30.25212],[-97.806163,30.250904],[-97.806908,30.246799],[-97.807409,30.245719],[-97.808195,30.244795],[-97.809922,30.243522],[-97.817088,30.239972],[-97.822484,30.237597],[-97.823813,30.236766],[-97.824716,30.235643],[-97.827935,30.230035],[-97.828753,30.228988],[-97.834101,30.223604],[-97.837466,30.219142],[-97.838294,30.218345],[-97.840037,30.217262],[-97.841726,30.216697],[-97.843428,30.21657],[-97.848809,30.216785],[-97.850754,30.216465],[-97.851968,30.215941],[-97.854312,30.214504],[-97.857498,30.212087]],[[-97.770617,30.274964],[-97.767335,30.279461],[-97.76515,30.283722],[-97.761126,30.289668],[-97.759692,30.292469],[-97.758081,30.298234],[-97.758003,30.299712],[-97.758266,30.303749],[-97.756926,30.310469],[-97.755807,30.319712],[-97.755384,30.335395],[-97.755111,30.337157],[-97.754898,30.337904],[-97.749613,30.348736],[-97.748547,30.352422],[-97.747329,30.354091],[-97.746131,30.356273],[-97.744476,30.36121],[-97.74319,30.364413],[-97.742149,30.368817],[-97.740143,30.374151],[-97.736182,30.382685],[-97.735336,30.385016],[-97.732842,30.394661],[-97.732002,30.397171],[-97.731168,30.398723],[-97.729618,30.400778],[-97.72806,30.402428],[-97.725862,30.40431],[-97.72381,30.405682],[-97.720569,30.407313],[-97.718912,30.407841],[-97.713832,30.408766],[-97.711021,30.410026],[-97.706964,30.413879],[-97.705643,30.415857],[-97.699847,30.432841],[-97.699402,30.434367],[-97.698797,30.438405],[-97.696921,30.443421],[-97.696245,30.446219],[-97.696155,30.449766],[-97.696514,30.452724],[-97.698916,30.460338]],[[-97.771045,30.274351],[-97.773718,30.270994],[-97.777949,30.267993],[-97.781494,30.266067],[-97.787063,30.264049],[-97.799588,30.257009],[-97.801157,30.255038],[-97.803373,30.249564],[-97.804441,30.247886],[-97.805893,30.24616],[-97.807357,30.244789],[-97.80986,30.243188],[-97.817601,30.239369],[-97.822303,30.237431],[-97.823724,30.236446],[-97.824487,30.235546],[-97.827139,30.230875],[-97.828339,30.229174],[-97.834502,30.222788],[-97.836683,30.219835],[-97.838261,30.218136],[-97.839575,30.217264],[-97.841671,30.216444],[-97.843989,30.216317],[-97.849053,30.216501],[-97.85058,30.21625],[-97.851676,30.215798],[-97.85517,30.213623],[-97.85721,30.211953]],[[-97.85721,30.211953],[-97.859318,30.209898],[-97.862098,30.206451],[-97.868006,30.197379],[-97.870623,30.193758],[-97.875614,30.188906],[-97.87721,30.187082],[-97.879116,30.184248],[-97.880453,30.181342],[-97.881648,30.179789],[-97.882972,30.178472],[-97.885368,30.174999],[-97.886065,30.174352],[-97.887361,30.173694]],[[-97.755277,30.336413],[-97.754898,30.337904],[-97.749613,30.348736],[-97.748547,30.352422],[-97.747329,30.354091],[-97.746131,30.356273],[-97.744476,30.36121],[-97.74319,30.364413],[-97.742149,30.368817]],[[-97.755614,30.336593],[-97.755384,30.33751],[-97.749753,30.349025],[-97.748777,30.352657],[-97.747047,30.35504],[-97.74641,30.356315],[-97.744769,30.36121]],[[-97.717359,30.479671],[-97.715072,30.47951],[-97.713112,30.479134],[-97.70577,30.476802],[-97.704669,30.476165],[-97.703724,30.475172],[-97.702724,30.472573]]]}},{"type":"Feature","properties":{"id":"loop360","label":"Loop 360","role":"spoke"},"geometry":{"type":"MultiLineString","coordinates":[[[-97.793453,30.232338],[-97.795988,30.233651],[-97.79767,30.23518],[-97.803701,30.246931],[-97.817773,30.264875],[-97.81825,30.266175],[-97.818357,30.267082],[-97.817686,30.272904],[-97.817737,30.274138],[-97.818035,30.274986],[-97.818941,30.276473],[-97.827102,30.287462],[-97.828008,30.289141],[-97.828355,30.290325],[-97.828484,30.291714],[-97.827991,30.299517],[-97.82735,30.30159],[-97.825651,30.304675],[-97.825282,30.305947],[-97.825516,30.307462],[-97.826878,30.311922],[-97.826977,30.313098],[-97.826727,30.314358],[-97.826164,30.315505],[-97.824665,30.317021],[-97.815513,30.321894],[-97.814064,30.323247],[-97.799708,30.345758],[-97.796826,30.349986],[-97.791907,30.358063],[-97.791085,30.359911],[-97.790533,30.361856],[-97.789877,30.367126],[-97.789343,30.368329],[-97.788122,30.369781],[-97.774495,30.38118],[-97.767545,30.384652],[-97.762955,30.387842],[-97.761444,30.388246],[-97.754144,30.388264],[-97.750097,30.388603],[-97.747175,30.388935],[-97.745801,30.389313]]]}},{"type":"Feature","properties":{"id":"us183","label":"183","role":"spoke"},"geometry":{"type":"MultiLineString","coordinates":[[[-97.766056,30.432411],[-97.749833,30.424347],[-97.748969,30.423706],[-97.74807,30.422698],[-97.747452,30.42123],[-97.745651,30.411832],[-97.745316,30.409141],[-97.745365,30.406886],[-97.746632,30.394013],[-97.746455,30.392331],[-97.74576,30.390453],[-97.741678,30.382537],[-97.741025,30.381663],[-97.739497,30.380274],[-97.732691,30.376172],[-97.720943,30.370515],[-97.719664,30.369414],[-97.718597,30.367591],[-97.717743,30.36375],[-97.715525,30.355891],[-97.713285,30.348818],[-97.712759,30.347873],[-97.711624,30.3469],[-97.708261,30.345564],[-97.705286,30.343803],[-97.704427,30.343172],[-97.701107,30.339782],[-97.699716,30.33882],[-97.692381,30.335125],[-97.684095,30.331444],[-97.677614,30.328324],[-97.675159,30.32679],[-97.66816,30.321622],[-97.665117,30.318949],[-97.664035,30.317485],[-97.663118,30.315505],[-97.661624,30.308876]],[[-97.766056,30.432411],[-97.776921,30.43786],[-97.787791,30.444763],[-97.789395,30.446224],[-97.790082,30.447264],[-97.790674,30.448731],[-97.791994,30.455476],[-97.79241,30.456756],[-97.799864,30.475049]],[[-97.797042,30.469006],[-97.792543,30.457904],[-97.791834,30.455569],[-97.790295,30.448536],[-97.789197,30.446457],[-97.788296,30.445532],[-97.786522,30.444212],[-97.776641,30.437927],[-97.765609,30.432407]]]}},{"type":"Feature","properties":{"id":"sh130","label":"130","role":"spoke"},"geometry":{"type":"MultiLineString","coordinates":[[[-97.581155,30.50076],[-97.582224,30.498657],[-97.583088,30.496037],[-97.584968,30.486122],[-97.585587,30.484275],[-97.586469,30.482392],[-97.592935,30.472087],[-97.594292,30.468747],[-97.594721,30.466348],[-97.594684,30.457867],[-97.594517,30.449308],[-97.594073,30.445867],[-97.583659,30.405512],[-97.582079,30.400321],[-97.579276,30.392739],[-97.579035,30.390865],[-97.579035,30.387506],[-97.579573,30.38443],[-97.582489,30.375334],[-97.584788,30.364657],[-97.585381,30.363372],[-97.593422,30.351037],[-97.594045,30.349314],[-97.594136,30.346969],[-97.593477,30.344532],[-97.586129,30.330479],[-97.584938,30.32878],[-97.574495,30.316041],[-97.572082,30.312734],[-97.570787,30.309959],[-97.569694,30.306018],[-97.569511,30.302885],[-97.569877,30.299734],[-97.571013,30.296051],[-97.571856,30.294347],[-97.578185,30.285047],[-97.579716,30.28319],[-97.585454,30.278349],[-97.591205,30.273808],[-97.593298,30.271582],[-97.606834,30.250172],[-97.608098,30.248669],[-97.611396,30.245646],[-97.612185,30.244663],[-97.616893,30.237281],[-97.617729,30.235429],[-97.618904,30.23152],[-97.621948,30.226514],[-97.622558,30.224852],[-97.622765,30.223648],[-97.622732,30.199308],[-97.622857,30.198283],[-97.623275,30.196865],[-97.624294,30.194642],[-97.628637,30.185731],[-97.63006,30.183079],[-97.632381,30.180247],[-97.650079,30.165905],[-97.65279,30.163112],[-97.653547,30.161843],[-97.659564,30.149024],[-97.66554,30.13913],[-97.666438,30.136367],[-97.666465,30.133562],[-97.665458,30.1304],[-97.661651,30.124462],[-97.660645,30.122065],[-97.660344,30.120674],[-97.660289,30.118892],[-97.660415,30.117892],[-97.661093,30.115806],[-97.667236,30.1058],[-97.671204,30.100357],[-97.674918,30.09642],[-97.678576,30.093251],[-97.679063,30.09257],[-97.689075,30.083073],[-97.690766,30.080775],[-97.692222,30.077347],[-97.692642,30.074742],[-97.692568,30.0684],[-97.692217,30.063681],[-97.689537,30.039612]],[[-97.581155,30.50076],[-97.576629,30.508387],[-97.576038,30.509944],[-97.575722,30.512112],[-97.577192,30.554952],[-97.577897,30.558313],[-97.586493,30.579181],[-97.588449,30.582896],[-97.593675,30.591875],[-97.595184,30.595215],[-97.60179,30.611626],[-97.602443,30.612858],[-97.60442,30.615303],[-97.605572,30.616332],[-97.607155,30.617356],[-97.621582,30.623648],[-97.624296,30.625541],[-97.626229,30.627634],[-97.62736,30.62954],[-97.628043,30.631314],[-97.628382,30.632812],[-97.628964,30.637679],[-97.629796,30.640321],[-97.632186,30.645794],[-97.639103,30.658879],[-97.643488,30.666347],[-97.65104,30.677989],[-97.657356,30.686071],[-97.657683,30.687235],[-97.657601,30.688391],[-97.65094,30.705047]]]}}],"attribution":"US Census Bureau TIGER/Line — public domain (17 U.S.C. §105)"}