{"type":"FeatureCollection","features":[{"type":"Feature","properties":{"id":"loop410","label":"Loop 410","role":"ring"},"geometry":{"type":"MultiLineString","coordinates":[[[-98.593364,29.485083],[-98.582819,29.488629],[-98.579442,29.48944],[-98.576263,29.489678],[-98.564994,29.489521],[-98.562599,29.4899],[-98.560486,29.490595],[-98.553794,29.494739],[-98.551865,29.496485],[-98.551145,29.497551],[-98.550307,29.499504],[-98.548773,29.502247],[-98.546092,29.505418],[-98.544159,29.50741],[-98.542402,29.508817],[-98.540548,29.509732],[-98.534201,29.512094],[-98.529521,29.515663],[-98.52777,29.516677],[-98.52052,29.519456],[-98.51654,29.520482],[-98.5136,29.520808],[-98.479031,29.520324],[-98.475877,29.51981],[-98.468785,29.518224],[-98.463242,29.51679],[-98.452819,29.516183],[-98.444913,29.51618],[-98.439424,29.515735],[-98.434101,29.516125],[-98.405952,29.516052],[-98.403878,29.516179],[-98.402126,29.516752],[-98.401045,29.517368],[-98.398518,29.519409],[-98.394713,29.521711],[-98.393448,29.523225],[-98.393028,29.523365],[-98.392467,29.5232],[-98.392281,29.522539],[-98.395076,29.519183],[-98.39589,29.517653],[-98.39645,29.516085],[-98.404027,29.47926],[-98.40406,29.45427],[-98.403344,29.450298],[-98.40246,29.448383],[-98.401527,29.447528],[-98.397311,29.44499],[-98.3955,29.44354],[-98.393272,29.441349],[-98.39085,29.438125],[-98.390025,29.43636],[-98.389483,29.434554],[-98.389116,29.432181],[-98.389184,29.390581],[-98.389661,29.38801],[-98.404644,29.340991],[-98.405919,29.338297],[-98.408288,29.33496],[-98.410903,29.332443],[-98.41487,29.329763],[-98.417306,29.328611],[-98.428952,29.323891],[-98.431878,29.323174],[-98.442674,29.321823],[-98.49008,29.321774],[-98.493881,29.321468],[-98.49991,29.320254],[-98.502429,29.320083],[-98.567632,29.319889],[-98.569739,29.319616],[-98.58658,29.315926],[-98.589082,29.315539],[-98.591072,29.315456],[-98.603596,29.315665],[-98.60542,29.315915],[-98.608083,29.316519],[-98.610995,29.317681],[-98.614585,29.320066],[-98.6166,29.322067],[-98.618096,29.324137],[-98.618806,29.325518],[-98.637555,29.372391],[-98.638563,29.37462],[-98.648187,29.392678],[-98.648925,29.39435],[-98.649577,29.396801],[-98.649826,29.399728],[-98.649556,29.427487],[-98.648883,29.429837],[-98.648346,29.430929],[-98.647413,29.432196],[-98.621801,29.463143],[-98.606629,29.479163],[-98.605419,29.48027],[-98.603229,29.481629],[-98.593364,29.485083]]]}},{"type":"Feature","properties":{"id":"loop1604","label":"1604","role":"ring"},"geometry":{"type":"MultiLineString","coordinates":[[[-98.291144,29.461935],[-98.287437,29.451233],[-98.286724,29.449664],[-98.285451,29.447679],[-98.2846,29.446609],[-98.257051,29.418127],[-98.253865,29.414544],[-98.241078,29.39626],[-98.239658,29.393339],[-98.239175,29.391554],[-98.238901,29.388934],[-98.238988,29.387187],[-98.240875,29.379722],[-98.240904,29.378542],[-98.240549,29.375701],[-98.241363,29.368595],[-98.242088,29.364027],[-98.242915,29.3625],[-98.246308,29.359221],[-98.24709,29.358005],[-98.248969,29.351452],[-98.250242,29.345355],[-98.252616,29.337108],[-98.254277,29.333959],[-98.259426,29.32748],[-98.260563,29.32473],[-98.262006,29.317583],[-98.261811,29.315985],[-98.259631,29.308682],[-98.259935,29.306636],[-98.260911,29.304969],[-98.261956,29.304091],[-98.263237,29.303399],[-98.267594,29.302389],[-98.269283,29.301611],[-98.27044,29.300728],[-98.273575,29.29729],[-98.278358,29.294445],[-98.301383,29.271822],[-98.308032,29.265755],[-98.309174,29.265104],[-98.318654,29.261517],[-98.320347,29.260579],[-98.325554,29.255525],[-98.329694,29.250948],[-98.331362,29.249682],[-98.333129,29.248906],[-98.346207,29.244957],[-98.347865,29.244189],[-98.349501,29.242965],[-98.351068,29.240865],[-98.3533,29.235133],[-98.353512,29.233156],[-98.353048,29.228142],[-98.353544,29.225644],[-98.35462,29.223821],[-98.357624,29.220409],[-98.358925,29.219383],[-98.360579,29.218659],[-98.362625,29.218376],[-98.392247,29.219008],[-98.408094,29.217539],[-98.40992,29.217644],[-98.415096,29.21855],[-98.422579,29.219529],[-98.436379,29.221018],[-98.473644,29.21989],[-98.481656,29.219966],[-98.484518,29.219384],[-98.489667,29.217056],[-98.501369,29.213349],[-98.50323,29.213191],[-98.507356,29.213664],[-98.512655,29.213635],[-98.514477,29.213884]],[[-98.325772,29.558205],[-98.328286,29.561977],[-98.330627,29.564607],[-98.33253,29.567303],[-98.335945,29.570645],[-98.337878,29.573682],[-98.34219,29.577526],[-98.352941,29.593215],[-98.358211,29.600589],[-98.359806,29.601922],[-98.360965,29.60243],[-98.362496,29.60274],[-98.399027,29.602061],[-98.427971,29.599937],[-98.431273,29.599901],[-98.434885,29.60046],[-98.454696,29.605176],[-98.465026,29.608281],[-98.472489,29.609934],[-98.47429,29.610153],[-98.477154,29.610194],[-98.490137,29.608869],[-98.497236,29.608397],[-98.508273,29.608549],[-98.521582,29.60844],[-98.524123,29.608032],[-98.525969,29.607398],[-98.533045,29.603366],[-98.536244,29.602355],[-98.538969,29.602045],[-98.558731,29.600944],[-98.560954,29.600562],[-98.563745,29.59952],[-98.5756,29.594031],[-98.579536,29.592924],[-98.634115,29.586543],[-98.636591,29.585544],[-98.638244,29.584278],[-98.649824,29.571998],[-98.653812,29.566299],[-98.655177,29.564705],[-98.659954,29.559777],[-98.667429,29.553208],[-98.680569,29.539028],[-98.681351,29.537627],[-98.68463,29.529708],[-98.685607,29.528379],[-98.689308,29.524692],[-98.690544,29.522902],[-98.701646,29.500443],[-98.703394,29.496266],[-98.709257,29.485137],[-98.710001,29.483384],[-98.710338,29.481786],[-98.710674,29.476064],[-98.71058,29.473603]],[[-98.324321,29.556512],[-98.327539,29.561332],[-98.330697,29.564933],[-98.33235,29.567362],[-98.335265,29.570076],[-98.337723,29.573786],[-98.340672,29.57629],[-98.342079,29.577756],[-98.358034,29.600761],[-98.359808,29.602201],[-98.361166,29.602728],[-98.362466,29.602957],[-98.398651,29.602277],[-98.426097,29.600282],[-98.431063,29.600112],[-98.434623,29.600615],[-98.454805,29.605426],[-98.4649,29.608482],[-98.472005,29.609971],[-98.47419,29.610268],[-98.477332,29.610299],[-98.489451,29.609116],[-98.497367,29.60857],[-98.50956,29.608762],[-98.521657,29.608642],[-98.523888,29.608313],[-98.525615,29.607769],[-98.532851,29.603764],[-98.53442,29.60308],[-98.536359,29.602543],[-98.537869,29.60232],[-98.558347,29.601157],[-98.561552,29.600591],[-98.575077,29.594538],[-98.57922,29.593265],[-98.583676,29.592616],[-98.633658,29.58694],[-98.63596,29.586187],[-98.637463,29.585339],[-98.638506,29.584483],[-98.649692,29.572586],[-98.654213,29.566283],[-98.657937,29.562239],[-98.6601,29.560037],[-98.667754,29.553265],[-98.680607,29.539641],[-98.681845,29.53747],[-98.684901,29.529892],[-98.685826,29.528593],[-98.689828,29.524579],[-98.690791,29.523103],[-98.701797,29.500848],[-98.70376,29.496216],[-98.709782,29.484812],[-98.710469,29.482793],[-98.710743,29.480581]],[[-98.701768,29.388971],[-98.70052,29.379355],[-98.695113,29.367969],[-98.691709,29.357872],[-98.691571,29.356753],[-98.691448,29.340287],[-98.688965,29.332266],[-98.688159,29.330349],[-98.683111,29.320459],[-98.675369,29.308956],[-98.673208,29.305323],[-98.671272,29.299719],[-98.669319,29.296747],[-98.668229,29.294303],[-98.66794,29.29284],[-98.667805,29.28823],[-98.66682,29.283248],[-98.667043,29.269677],[-98.666867,29.268248],[-98.665734,29.265052],[-98.665673,29.257446],[-98.66526,29.255606],[-98.663501,29.251598],[-98.662776,29.249105],[-98.662555,29.24689],[-98.662555,29.240873],[-98.662351,29.239267],[-98.661633,29.237459],[-98.660172,29.235563],[-98.658653,29.234384],[-98.655887,29.232672],[-98.651302,29.230515],[-98.641289,29.226933],[-98.639005,29.226481],[-98.636499,29.226284],[-98.624596,29.226301],[-98.622911,29.226465],[-98.609306,29.230975],[-98.607146,29.231502],[-98.599678,29.232079],[-98.595311,29.232646],[-98.582409,29.233474],[-98.566657,29.233582],[-98.565075,29.233109],[-98.563928,29.23242],[-98.562639,29.231028],[-98.561582,29.228726],[-98.560417,29.2274],[-98.553439,29.221971],[-98.550556,29.220199],[-98.545543,29.218264],[-98.543238,29.21757],[-98.526567,29.215028]],[[-98.504951,29.213344],[-98.507356,29.213664],[-98.512655,29.213635],[-98.515692,29.214024],[-98.521081,29.214177],[-98.542383,29.217389],[-98.544957,29.218056],[-98.550333,29.220096],[-98.553439,29.221971],[-98.560976,29.227947],[-98.561582,29.228726],[-98.562525,29.230852],[-98.563675,29.232208],[-98.565075,29.233109],[-98.566295,29.233514],[-98.567539,29.233669],[-98.582409,29.233474],[-98.595311,29.232646],[-98.603126,29.231803]],[[-98.701768,29.388971],[-98.702545,29.395387],[-98.703161,29.397745],[-98.708622,29.406187],[-98.70911,29.407197],[-98.709549,29.408789],[-98.709598,29.421186],[-98.709891,29.422848],[-98.710923,29.425575],[-98.711158,29.427515],[-98.71134,29.463378],[-98.710851,29.47281],[-98.710988,29.475804],[-98.710743,29.480581]],[[-98.71058,29.473603],[-98.711095,29.458317],[-98.711054,29.452347],[-98.71079,29.44842],[-98.71093,29.441124],[-98.710666,29.438904],[-98.710605,29.435226],[-98.710605,29.432322],[-98.710891,29.430298],[-98.710874,29.42694],[-98.710599,29.425498],[-98.709623,29.423138],[-98.70927,29.421647],[-98.709104,29.415752],[-98.709256,29.409471],[-98.708951,29.407911],[-98.708324,29.406411],[-98.705383,29.401919],[-98.70274,29.397324],[-98.701655,29.391425],[-98.701768,29.388971]],[[-98.289507,29.496649],[-98.287546,29.510229],[-98.287777,29.51227],[-98.288493,29.513861],[-98.298115,29.528497],[-98.300019,29.530927],[-98.303344,29.53592],[-98.307644,29.54135],[-98.309326,29.542781],[-98.317526,29.547625],[-98.318892,29.548631],[-98.320665,29.550573],[-98.325772,29.558205]],[[-98.353511,29.23356],[-98.353133,29.235708],[-98.351068,29.240865],[-98.349697,29.242763],[-98.348296,29.24392],[-98.346207,29.244957],[-98.333129,29.248906],[-98.331362,29.249682],[-98.329694,29.250948],[-98.325554,29.255525],[-98.320627,29.260385],[-98.318654,29.261517],[-98.309,29.265179],[-98.307821,29.265911],[-98.306407,29.26727]],[[-98.259867,29.421035],[-98.255545,29.416524],[-98.253325,29.41382],[-98.241498,29.396908],[-98.240225,29.394692],[-98.239175,29.391554],[-98.238927,29.388074],[-98.239332,29.385362],[-98.240875,29.379722],[-98.240904,29.378542]],[[-98.327398,29.25346],[-98.324304,29.256811],[-98.320627,29.260385],[-98.318654,29.261517],[-98.308433,29.265482],[-98.300304,29.272888]],[[-98.29378,29.469831],[-98.29625,29.47899],[-98.296282,29.480856],[-98.295542,29.482644],[-98.292645,29.486194],[-98.291625,29.488029],[-98.290135,29.49319],[-98.289507,29.496649]],[[-98.253991,29.334384],[-98.252926,29.33637],[-98.252299,29.338059],[-98.250242,29.345355],[-98.249344,29.34973]]]}},{"type":"Feature","properties":{"id":"us281","label":"281","role":"spoke"},"geometry":{"type":"MultiLineString","coordinates":[[[-98.418183,29.33363],[-98.421036,29.34081],[-98.422807,29.34447],[-98.427921,29.352787],[-98.430954,29.357299],[-98.43311,29.35894],[-98.44141,29.361976],[-98.445356,29.363988],[-98.447834,29.365612],[-98.451657,29.368694],[-98.471307,29.385882],[-98.474149,29.388609],[-98.476496,29.391804],[-98.479548,29.39847],[-98.480439,29.400597],[-98.480755,29.401917],[-98.480748,29.403882],[-98.479538,29.409486],[-98.480217,29.413025],[-98.480268,29.420579],[-98.481388,29.42478],[-98.481498,29.427836],[-98.481117,29.429383],[-98.477984,29.434062],[-98.477107,29.436151],[-98.476997,29.437216],[-98.478529,29.441096],[-98.477628,29.444507],[-98.477854,29.445801],[-98.478882,29.446812],[-98.481985,29.448026],[-98.482902,29.448614],[-98.4835,29.449386],[-98.483746,29.450509],[-98.483562,29.451333],[-98.481904,29.454323],[-98.481679,29.455248],[-98.481517,29.458482],[-98.480977,29.459761],[-98.479648,29.461167],[-98.47679,29.462522],[-98.47472,29.463916],[-98.47383,29.465108],[-98.473703,29.466387],[-98.473989,29.467463],[-98.474773,29.468798],[-98.479563,29.474435],[-98.480607,29.476374],[-98.484137,29.495799],[-98.483667,29.497426],[-98.476409,29.5102],[-98.476068,29.511104],[-98.476003,29.512021],[-98.476386,29.513526],[-98.484804,29.530468],[-98.486087,29.532015],[-98.491832,29.536572],[-98.492514,29.537681],[-98.492654,29.538824],[-98.492148,29.540334],[-98.485479,29.555419],[-98.476183,29.581882],[-98.467366,29.612395],[-98.466,29.617697]],[[-98.451793,29.321762],[-98.442674,29.321823],[-98.431878,29.323174],[-98.428952,29.323891],[-98.42141,29.326921]]]}},{"type":"Feature","properties":{"id":"i35","label":"I-35","role":"spoke"},"geometry":{"type":"MultiLineString","coordinates":[[[-98.500311,29.431363],[-98.501202,29.426682],[-98.502409,29.417217],[-98.503551,29.415467],[-98.506726,29.412653],[-98.508139,29.410928],[-98.5093,29.408689],[-98.511719,29.403036],[-98.511918,29.401946],[-98.511351,29.397537],[-98.511316,29.3954],[-98.511948,29.390403],[-98.512484,29.383715],[-98.513163,29.379548],[-98.514582,29.37518],[-98.516746,29.370867],[-98.525964,29.356658],[-98.527957,29.35441],[-98.530363,29.352529],[-98.532951,29.351124],[-98.601137,29.323017],[-98.603594,29.321149],[-98.62486,29.302663],[-98.63949,29.292124],[-98.642756,29.289493],[-98.643893,29.288826],[-98.648724,29.286785],[-98.652849,29.285424],[-98.691815,29.268698],[-98.71627,29.259],[-98.767279,29.244214],[-98.772439,29.242485],[-98.775941,29.240645]],[[-98.261402,29.614135],[-98.257999,29.616371],[-98.208769,29.641483],[-98.187353,29.654689],[-98.182799,29.657756],[-98.169676,29.66343],[-98.157395,29.672437],[-98.144535,29.681495],[-98.14291,29.682475],[-98.139566,29.683625],[-98.126041,29.685991],[-98.122567,29.686935],[-98.100183,29.695921],[-98.098042,29.697002],[-98.096286,29.698186],[-98.094998,29.699268],[-98.093235,29.701162],[-98.091409,29.704106],[-98.090493,29.706628],[-98.088671,29.71574],[-98.088183,29.717413],[-98.087061,29.719922],[-98.08538,29.722494],[-98.082924,29.725123],[-98.064166,29.740965],[-98.059242,29.745345],[-98.048998,29.759392],[-98.04109,29.770822],[-98.029364,29.786758],[-98.020758,29.796117],[-98.015109,29.801263]],[[-98.482857,29.440029],[-98.480364,29.439228],[-98.476503,29.438499],[-98.471396,29.438289],[-98.460059,29.438324],[-98.453589,29.439035],[-98.447696,29.439104],[-98.443925,29.439522],[-98.44182,29.44008],[-98.439083,29.44119],[-98.426255,29.448439],[-98.417735,29.452279],[-98.415413,29.453779],[-98.413536,29.455699],[-98.412413,29.457508],[-98.404409,29.473729],[-98.404086,29.475861],[-98.404027,29.47926],[-98.403693,29.481078],[-98.39645,29.516085],[-98.395213,29.519121],[-98.392411,29.528417],[-98.391351,29.530552],[-98.390044,29.532361],[-98.38824,29.534226],[-98.385887,29.535977],[-98.360569,29.550253],[-98.358055,29.55128],[-98.351872,29.553242],[-98.34829,29.555062],[-98.346274,29.556506],[-98.325969,29.574076],[-98.323258,29.576239],[-98.320111,29.577927],[-98.309854,29.581569],[-98.307965,29.582613],[-98.304358,29.585091]],[[-98.955407,29.090875],[-98.930324,29.110044],[-98.922713,29.11647],[-98.920881,29.117382],[-98.90784,29.120495],[-98.905765,29.121333],[-98.904372,29.12227],[-98.891152,29.134413],[-98.875619,29.151232],[-98.865767,29.16079],[-98.845624,29.1824],[-98.804733,29.21428]],[[-98.304358,29.585091],[-98.300118,29.587941],[-98.279547,29.598313],[-98.277049,29.599743],[-98.274957,29.601445],[-98.266844,29.609271],[-98.260853,29.614341]],[[-98.804733,29.213917],[-98.793616,29.222622],[-98.77979,29.237281],[-98.777588,29.239238],[-98.775613,29.240531]],[[-98.500708,29.428389],[-98.500456,29.430478],[-98.50011,29.43153],[-98.499302,29.432678],[-98.498162,29.4336],[-98.4952,29.435387],[-98.492204,29.43666],[-98.486607,29.439938],[-98.484765,29.440337],[-98.482857,29.440029]]]}},{"type":"Feature","properties":{"id":"i10","label":"I-10","role":"spoke"},"geometry":{"type":"MultiLineString","coordinates":[[[-98.186324,29.5012],[-98.197837,29.496888],[-98.256805,29.476764],[-98.288625,29.466474],[-98.319253,29.458338],[-98.39562,29.434171],[-98.409023,29.430925],[-98.414962,29.429111],[-98.417799,29.427749],[-98.420309,29.425962],[-98.422187,29.424128],[-98.426422,29.418342],[-98.42821,29.416387],[-98.442815,29.403801],[-98.444149,29.402919],[-98.445338,29.402394],[-98.447788,29.401807],[-98.465835,29.401742],[-98.469085,29.401523],[-98.471027,29.400877],[-98.473204,29.399575],[-98.476339,29.396463],[-98.477776,29.395372],[-98.479532,29.394579],[-98.481776,29.394083],[-98.484079,29.394163],[-98.49534,29.396209],[-98.506834,29.396231],[-98.508808,29.396597],[-98.509701,29.396964],[-98.51056,29.397716],[-98.511276,29.398943],[-98.511682,29.401372],[-98.511458,29.403087],[-98.508383,29.410044],[-98.50768,29.411215],[-98.506564,29.412488],[-98.50304,29.415531],[-98.502232,29.416811],[-98.5009,29.427016],[-98.500645,29.427567],[-98.500214,29.430842],[-98.50078,29.431939],[-98.503483,29.435714],[-98.504316,29.437881],[-98.505092,29.438999],[-98.505985,29.439644],[-98.507059,29.440073],[-98.512464,29.44122],[-98.513799,29.442132],[-98.514484,29.443197],[-98.514722,29.444004],[-98.514727,29.446829],[-98.515407,29.451245],[-98.515122,29.455012],[-98.515774,29.460095],[-98.515784,29.470736],[-98.515988,29.472015],[-98.51653,29.47351],[-98.51742,29.474865],[-98.518338,29.475824],[-98.526987,29.48256],[-98.528767,29.483723],[-98.530314,29.484379],[-98.532362,29.484827],[-98.538216,29.484859],[-98.539763,29.485077],[-98.542364,29.486138],[-98.543591,29.486983],[-98.544326,29.487741],[-98.545458,29.489256],[-98.546511,29.491642],[-98.547607,29.495277],[-98.548124,29.499519],[-98.549642,29.504833],[-98.551565,29.508982],[-98.555551,29.522942],[-98.555969,29.52417],[-98.556966,29.526014],[-98.55815,29.527476],[-98.570762,29.539531],[-98.582038,29.546755],[-98.582988,29.547452],[-98.584187,29.548706],[-98.589491,29.55885],[-98.590302,29.561155],[-98.594193,29.574223],[-98.597069,29.583109],[-98.599406,29.597815],[-98.603508,29.610857],[-98.606865,29.617076],[-98.610251,29.626626],[-98.613455,29.634974],[-98.614046,29.636098],[-98.623211,29.649689],[-98.626346,29.658077],[-98.627349,29.65989],[-98.630154,29.663458],[-98.634789,29.674466],[-98.664594,29.718304],[-98.687306,29.738813]],[[-98.920595,29.987073],[-98.899966,29.978691],[-98.897854,29.977563],[-98.895472,29.975628],[-98.894505,29.974392],[-98.893775,29.973067],[-98.886153,29.955576],[-98.885058,29.953818],[-98.883528,29.95219],[-98.875894,29.946013],[-98.870835,29.940188],[-98.858751,29.928358],[-98.856735,29.926649],[-98.852596,29.923946],[-98.844072,29.919125],[-98.840363,29.91753],[-98.829049,29.913379],[-98.825989,29.911479],[-98.82441,29.910077],[-98.822998,29.908234],[-98.814284,29.89286],[-98.813366,29.891512],[-98.808701,29.886609],[-98.795753,29.873824],[-98.788503,29.864805],[-98.787406,29.862623],[-98.785732,29.855296],[-98.784472,29.852439],[-98.77462,29.838757],[-98.772395,29.836432],[-98.75892,29.824598],[-98.756946,29.822743],[-98.756024,29.821483],[-98.755089,29.819827],[-98.754168,29.817082],[-98.752269,29.795283],[-98.751379,29.792655],[-98.750537,29.790998],[-98.749549,29.78957],[-98.747693,29.787486],[-98.745928,29.78606],[-98.722994,29.769914],[-98.717337,29.765617],[-98.687306,29.738813]],[[-98.516025,29.459009],[-98.516059,29.470767],[-98.516437,29.472499],[-98.517449,29.474265],[-98.518557,29.475475],[-98.520632,29.4771],[-98.52763,29.482494],[-98.529474,29.483658],[-98.5313,29.484326],[-98.532748,29.484596],[-98.538045,29.48464],[-98.540365,29.485052],[-98.542823,29.486163],[-98.544538,29.487649],[-98.545627,29.489159],[-98.546867,29.491964],[-98.547962,29.495753],[-98.548696,29.499909],[-98.550329,29.505585],[-98.552152,29.510083],[-98.555944,29.52328],[-98.557126,29.525864],[-98.558744,29.527768],[-98.570923,29.539367],[-98.582744,29.547015],[-98.584566,29.548932],[-98.589703,29.558792],[-98.59068,29.561578],[-98.594287,29.573841],[-98.597529,29.583967],[-98.59984,29.598684],[-98.603725,29.610819],[-98.606787,29.616251],[-98.61372,29.634917],[-98.615114,29.637236],[-98.623345,29.6494],[-98.62505,29.653496],[-98.626477,29.657781],[-98.627558,29.65977],[-98.629503,29.662031],[-98.630523,29.663637],[-98.634897,29.674084],[-98.66478,29.718166],[-98.687549,29.73872]],[[-98.50495,29.39609],[-98.494859,29.39596],[-98.484584,29.394047],[-98.481762,29.393957],[-98.479723,29.394328],[-98.477881,29.395114],[-98.476131,29.39636],[-98.473453,29.399031],[-98.472094,29.400059],[-98.470023,29.401038],[-98.468822,29.401337],[-98.467579,29.40151],[-98.449248,29.401511],[-98.445889,29.40194],[-98.444412,29.402529],[-98.442582,29.403715],[-98.4277,29.41647],[-98.425887,29.418588],[-98.42228,29.42365],[-98.420589,29.425469],[-98.418114,29.427354],[-98.414568,29.429042],[-98.408799,29.430791],[-98.393827,29.434432],[-98.319479,29.458027],[-98.287108,29.466713],[-98.256476,29.476624],[-98.197992,29.496548],[-98.186346,29.500963]],[[-98.503965,29.435791],[-98.501301,29.432085],[-98.500827,29.430369],[-98.500872,29.428809],[-98.502408,29.417515],[-98.503376,29.415855],[-98.507519,29.412015],[-98.508456,29.410652],[-98.511719,29.403036],[-98.511918,29.401946],[-98.511554,29.399224]],[[-98.515774,29.460095],[-98.515829,29.459015],[-98.515283,29.455554],[-98.515437,29.450271],[-98.514811,29.446947],[-98.514808,29.443813],[-98.514464,29.442813],[-98.513436,29.441686],[-98.512294,29.441054],[-98.507143,29.439977],[-98.506016,29.439483],[-98.50474,29.438343],[-98.503724,29.436187]]]}},{"type":"Feature","properties":{"id":"i37","label":"I-37","role":"spoke"},"geometry":{"type":"MultiLineString","coordinates":[[[-98.431298,29.122507],[-98.428214,29.148209],[-98.428266,29.16965],[-98.42643,29.181201],[-98.425555,29.185558],[-98.411929,29.21985],[-98.403006,29.235699],[-98.396816,29.24615],[-98.395893,29.248184],[-98.395399,29.249838],[-98.395132,29.251323],[-98.395078,29.253969],[-98.396258,29.272623],[-98.395155,29.296625],[-98.395301,29.299245],[-98.396115,29.302321],[-98.397813,29.305459],[-98.399516,29.307506],[-98.404936,29.313103],[-98.406105,29.314823],[-98.40847,29.319067],[-98.412606,29.324181],[-98.41715,29.33128],[-98.418621,29.333964],[-98.421469,29.341213],[-98.422778,29.343889],[-98.430891,29.3568],[-98.432355,29.358158],[-98.433997,29.359099],[-98.439038,29.360772],[-98.442707,29.362296],[-98.445749,29.363922],[-98.448399,29.365686],[-98.452057,29.368692],[-98.472924,29.386976],[-98.474787,29.388958],[-98.476389,29.391237],[-98.477546,29.393357],[-98.480592,29.40023],[-98.481106,29.402827],[-98.479814,29.409157],[-98.480444,29.412913],[-98.480492,29.420399],[-98.481668,29.424926],[-98.481716,29.427953],[-98.481422,29.429278],[-98.47867,29.433307],[-98.477727,29.435574],[-98.477769,29.436899],[-98.479072,29.439086]]]}}],"attribution":"US Census Bureau TIGER/Line — public domain (17 U.S.C. §105)"}